[{"OBJECT_NAME":"STARLINK-2383","OBJECT_ID":"2021-018R","EPOCH":"2026-03-09T17:59:04.647840","MEAN_MOTION":15.29365657,"ECCENTRICITY":0.0001466,"INCLINATION":53.1561,"RA_OF_ASC_NODE":254.8518,"ARG_OF_PERICENTER":128.9054,"MEAN_ANOMALY":231.2078,"EPHEMERIS_TYPE":0,"CLASSIFICATION_TYPE":"U","NORAD_CAT_ID":47802,"ELEMENT_SET_NO":999,"REV_AT_EPOCH":27656,"BSTAR":2.0905209e-5,"MEAN_MOTION_DOT":2.47e-6,"MEAN_MOTION_DDOT":0},{"OBJECT_NAME":"GEOSCAN 4 (RS92S4)","OBJECT_ID":"2025-155S","EPOCH":"2026-03-09T21:50:07.724832","MEAN_MOTION":15.30369837,"ECCENTRICITY":0.00070968,"INCLINATION":97.4465,"RA_OF_ASC_NODE":37.7626,"ARG_OF_PERICENTER":154.7045,"MEAN_ANOMALY":205.4544,"EPHEMERIS_TYPE":0,"CLASSIFICATION_TYPE":"U","NORAD_CAT_ID":64892,"ELEMENT_SET_NO":999,"REV_AT_EPOCH":6562,"BSTAR":0.00068609503,"MEAN_MOTION_DOT":0.00020121,"MEAN_MOTION_DDOT":0}]
